EUTELSAT 7A             
1 28187U 04008A   25270.18968735  .00000109  00000+0  00000+0 0  9999
2 28187   5.1574  75.1340 0000914  78.1798 142.0105  1.00271136 78711
EUTELSAT 174A           
1 28924U 05052A   25270.18050065  .00000015  00000+0  00000+0 0  9992
2 28924   3.5476  79.7795 0006078 104.6431  60.8250  1.00270428 49699
EUTELSAT HOTBIRD 13B    
1 29270U 06032A   25270.15250720  .00000161  00000+0  00000+0 0  9995
2 29270   0.9761  85.1122 0004042  92.9767 276.1127  1.00274214 44672
EUTELSAT HOTBIRD 13C    
1 33459U 08065A   25270.21482079 -.00000095  00000+0  00000+0 0  9995
2 33459   2.2685  82.2993 0004889 125.4170 223.3938  1.00272232 44705
EUTELSAT 36B            
1 36101U 09065A   25270.22730084  .00000117  00000+0  00000+0 0  9990
2 36101   0.0528   1.7645 0005788 184.9736 311.8701  1.00270294 58073
EUTELSAT KA-SAT 9A      
1 37258U 10069A   25270.21906748  .00000066  00000+0  00000+0 0  9994
2 37258   0.0544 332.2902 0002672 181.3326 300.5014  1.00269467 41375
EUTELSAT 7 WEST A       
1 37816U 11051A   25270.21586080 -.00000055  00000+0  00000+0 0  9998
2 37816   0.0817  34.3080 0005985 154.2207 248.1389  1.00273017 51247
EUTELSAT 16A            
1 37836U 11057A   25270.22045416  .00000108  00000+0  00000+0 0  9998
2 37836   0.0645 356.0780 0005383 190.1137 275.4310  1.00270431  4693
